start=new Date('2022-03-15T00:00:00.000Z').valueOf();
sats=[{"EPOCH":"2022-03-14T05:37:48.767808","REV_AT_EPOCH":"8834","SITE":"AFETR","MEAN_MOTION_DDOT":"0.0000000000000","OBJECT_ID":"2020-057AQ","TIME_SYSTEM":"UTC","RA_OF_ASC_NODE":"334.8879","PERIOD":"95.593","MEAN_MOTION":"15.06389159","RCS_SIZE":"LARGE","MEAN_MOTION_DOT":"0.00003852","INCLINATION":"53.0545","LAUNCH_DATE":"2020-08-18","CLASSIFICATION_TYPE":"U","SEMIMAJOR_AXIS":"6925.382","ARG_OF_PERICENTER":"61.0233","DECAY_DATE":null,"TLE_LINE1":"1 46155U 20057AQ  22073.23459222  .00003852  00000-0  27745-3 0  9994","ELEMENT_SET_NO":"999","PERIAPSIS":"546.072","MEAN_ELEMENT_THEORY":"SGP4","GP_ID":"198732168","OBJECT_NAME":"STARLINK-1667","OBJECT_TYPE":"PAYLOAD","TLE_LINE2":"2 46155  53.0545 334.8879 0001696  61.0233 299.0926 15.06389159 88341","NORAD_CAT_ID":"46155","APOAPSIS":"548.421","COUNTRY_CODE":"US","ECCENTRICITY":"0.00016960","REF_FRAME":"TEME","EPHEMERIS_TYPE":"0","FILE":"3359259","BSTAR":"0.00027745000000","MEAN_ANOMALY":"299.0926","CENTER_NAME":"EARTH"},{"MEAN_MOTION":"15.06394852","RCS_SIZE":"LARGE","MEAN_MOTION_DOT":"0.00006300","INCLINATION":"53.0543","LAUNCH_DATE":"2020-08-18","CLASSIFICATION_TYPE":"U","SEMIMAJOR_AXIS":"6925.364","ARG_OF_PERICENTER":"62.1508","TLE_LINE1":"1 46156U 20057AR  22073.75615804  .00006300  00000-0  44150-3 0  9992","DECAY_DATE":null,"EPOCH":"2022-03-14T18:08:52.054656","REV_AT_EPOCH":"8815","MEAN_MOTION_DDOT":"0.0000000000000","SITE":"AFETR","OBJECT_ID":"2020-057AR","TIME_SYSTEM":"UTC","RA_OF_ASC_NODE":"352.5476","PERIOD":"95.592","NORAD_CAT_ID":"46156","APOAPSIS":"548.371","COUNTRY_CODE":"US","ECCENTRICITY":"0.00016480","REF_FRAME":"TEME","EPHEMERIS_TYPE":"0","FILE":"3359665","BSTAR":"0.00044150000000","CENTER_NAME":"EARTH","MEAN_ANOMALY":"297.9647","ELEMENT_SET_NO":"999","MEAN_ELEMENT_THEORY":"SGP4","PERIAPSIS":"546.088","GP_ID":"198765884","OBJECT_NAME":"STARLINK-1545","OBJECT_TYPE":"PAYLOAD","TLE_LINE2":"2 46156  53.0543 352.5476 0001648  62.1508 297.9647 15.06394852 88156"},{"ELEMENT_SET_NO":"999","MEAN_ELEMENT_THEORY":"SGP4","PERIAPSIS":"545.967","GP_ID":"198766636","OBJECT_NAME":"STARLINK-1587","OBJECT_TYPE":"PAYLOAD","TLE_LINE2":"2 46157  53.0558 332.3159 0001840  44.8468 315.2669 15.06390832 87198","APOAPSIS":"548.516","NORAD_CAT_ID":"46157","ECCENTRICITY":"0.00018400","COUNTRY_CODE":"US","REF_FRAME":"TEME","EPHEMERIS_TYPE":"0","BSTAR":"-0.00001465200000","FILE":"3359665","MEAN_ANOMALY":"315.2669","CENTER_NAME":"EARTH","EPOCH":"2022-03-14T19:25:49.734624","REV_AT_EPOCH":"8719","SITE":"AFETR","MEAN_MOTION_DDOT":"0.0000000000000","OBJECT_ID":"2020-057AS","RA_OF_ASC_NODE":"332.3159","TIME_SYSTEM":"UTC","PERIOD":"95.593","MEAN_MOTION":"15.06390832","MEAN_MOTION_DOT":"-0.00000500","RCS_SIZE":"LARGE","LAUNCH_DATE":"2020-08-18","CLASSIFICATION_TYPE":"U","INCLINATION":"53.0558","SEMIMAJOR_AXIS":"6925.377","TLE_LINE1":"1 46157U 20057AS  22073.80960341 -.00000500  00000-0 -14652-4 0  9991","DECAY_DATE":null,"ARG_OF_PERICENTER":"44.8468"},{"EPHEMERIS_TYPE":"0","CENTER_NAME":"EARTH","MEAN_ANOMALY":"298.7844","BSTAR":"0.00045720000000","FILE":"3359665","APOAPSIS":"548.084","NORAD_CAT_ID":"46158","REF_FRAME":"TEME","COUNTRY_CODE":"US","ECCENTRICITY":"0.00013620","OBJECT_NAME":"STARLINK-1589","GP_ID":"198766887","TLE_LINE2":"2 46158  53.0556 332.3405 0001362  61.3282 298.7844 15.06423716 88456","OBJECT_TYPE":"PAYLOAD","PERIAPSIS":"546.198","MEAN_ELEMENT_THEORY":"SGP4","ELEMENT_SET_NO":"999","LAUNCH_DATE":"2020-08-18","CLASSIFICATION_TYPE":"U","INCLINATION":"53.0556","TLE_LINE1":"1 46158U 20057AT  22073.80588910  .00006539  00000-0  45720-3 0  9995","DECAY_DATE":null,"ARG_OF_PERICENTER":"61.3282","SEMIMAJOR_AXIS":"6925.276","MEAN_MOTION":"15.06423716","RCS_SIZE":"LARGE","MEAN_MOTION_DOT":"0.00006539","RA_OF_ASC_NODE":"332.3405","TIME_SYSTEM":"UTC","SITE":"AFETR","OBJECT_ID":"2020-057AT","MEAN_MOTION_DDOT":"0.0000000000000","PERIOD":"95.591","REV_AT_EPOCH":"8845","EPOCH":"2022-03-14T19:20:28.818240"},{"PERIAPSIS":"546.186","MEAN_ELEMENT_THEORY":"SGP4","ELEMENT_SET_NO":"999","TLE_LINE2":"2 46159  53.0552  15.4329 0001556  60.0444 300.0699 15.06383564 87784","OBJECT_TYPE":"PAYLOAD","OBJECT_NAME":"STARLINK-1595","GP_ID":"198732668","REF_FRAME":"TEME","COUNTRY_CODE":"US","ECCENTRICITY":"0.00015560","APOAPSIS":"548.342","NORAD_CAT_ID":"46159","CENTER_NAME":"EARTH","MEAN_ANOMALY":"300.0699","BSTAR":"0.00010771000000","FILE":"3359259","EPHEMERIS_TYPE":"0","REV_AT_EPOCH":"8778","EPOCH":"2022-03-14T02:47:57.405696","PERIOD":"95.593","RA_OF_ASC_NODE":"15.4329","TIME_SYSTEM":"UTC","MEAN_MOTION_DDOT":"0.0000000000000","SITE":"AFETR","OBJECT_ID":"2020-057AU","MEAN_MOTION_DOT":"0.00001322","RCS_SIZE":"LARGE","MEAN_MOTION":"15.06383564","TLE_LINE1":"1 46159U 20057AU  22073.11663664  .00001322  00000-0  10771-3 0  9993","DECAY_DATE":null,"ARG_OF_PERICENTER":"60.0444","SEMIMAJOR_AXIS":"6925.399","LAUNCH_DATE":"2020-08-18","CLASSIFICATION_TYPE":"U","INCLINATION":"53.0552"},{"ELEMENT_SET_NO":"999","MEAN_ELEMENT_THEORY":"SGP4","PERIAPSIS":"545.853","GP_ID":"198732418","OBJECT_NAME":"STARLINK-1598","OBJECT_TYPE":"PAYLOAD","TLE_LINE2":"2 46160  53.0562 353.6783 0001973  48.3016 311.8142 15.06398248 88111","NORAD_CAT_ID":"46160","APOAPSIS":"548.585","ECCENTRICITY":"0.00019730","COUNTRY_CODE":"US","REF_FRAME":"TEME","EPHEMERIS_TYPE":"0","FILE":"3359259","BSTAR":"-0.00005833000000","MEAN_ANOMALY":"311.8142","CENTER_NAME":"EARTH","REV_AT_EPOCH":"8811","EPOCH":"2022-03-14T12:07:55.957728","OBJECT_ID":"2020-057AV","SITE":"AFETR","MEAN_MOTION_DDOT":"0.0000000000000","TIME_SYSTEM":"UTC","RA_OF_ASC_NODE":"353.6783","PERIOD":"95.592","MEAN_MOTION":"15.06398248","RCS_SIZE":"LARGE","MEAN_MOTION_DOT":"-0.00001150","INCLINATION":"53.0562","CLASSIFICATION_TYPE":"U","LAUNCH_DATE":"2020-08-18","SEMIMAJOR_AXIS":"6925.354","ARG_OF_PERICENTER":"48.3016","TLE_LINE1":"1 46160U 20057AV  22073.50550877 -.00001150  00000-0 -58330-4 0  9994","DECAY_DATE":null},{"NORAD_CAT_ID":"46161","APOAPSIS":"548.192","ECCENTRICITY":"0.00015650","COUNTRY_CODE":"US","REF_FRAME":"TEME","EPHEMERIS_TYPE":"0","FILE":"3359665","BSTAR":"0.00123460000000","MEAN_ANOMALY":"281.6099","CENTER_NAME":"EARTH","ELEMENT_SET_NO":"999","PERIAPSIS":"546.025","MEAN_ELEMENT_THEORY":"SGP4","GP_ID":"198767136","OBJECT_NAME":"STARLINK-1600","OBJECT_TYPE":"PAYLOAD","TLE_LINE2":"2 46161  53.0550 352.2866 0001565  78.5066 281.6099 15.06434341 88168","MEAN_MOTION":"15.06434341","RCS_SIZE":"LARGE","MEAN_MOTION_DOT":"0.00018173","INCLINATION":"53.0550","LAUNCH_DATE":"2020-08-18","CLASSIFICATION_TYPE":"U","SEMIMAJOR_AXIS":"6925.243","ARG_OF_PERICENTER":"78.5066","DECAY_DATE":null,"TLE_LINE1":"1 46161U 20057AW  22073.81511862  .00018173  00000-0  12346-2 0  9996","REV_AT_EPOCH":"8816","EPOCH":"2022-03-14T19:33:46.248768","SITE":"AFETR","OBJECT_ID":"2020-057AW","MEAN_MOTION_DDOT":"0.0000000000000","TIME_SYSTEM":"UTC","RA_OF_ASC_NODE":"352.2866","PERIOD":"95.590"},{"ARG_OF_PERICENTER":"58.8790","DECAY_DATE":null,"TLE_LINE1":"1 46162U 20057AX  22073.48707995  .00004718  00000-0  33546-3 0  9990","SEMIMAJOR_AXIS":"6925.355","INCLINATION":"53.0569","CLASSIFICATION_TYPE":"U","LAUNCH_DATE":"2020-08-18","RCS_SIZE":"LARGE","MEAN_MOTION_DOT":"0.00004718","MEAN_MOTION":"15.06397965","PERIOD":"95.592","TIME_SYSTEM":"UTC","RA_OF_ASC_NODE":"353.7640","MEAN_MOTION_DDOT":"0.0000000000000","SITE":"AFETR","OBJECT_ID":"2020-057AX","EPOCH":"2022-03-14T11:41:23.707680","REV_AT_EPOCH":"8753","MEAN_ANOMALY":"301.2357","CENTER_NAME":"EARTH","FILE":"3358838","BSTAR":"0.00033546000000","EPHEMERIS_TYPE":"0","REF_FRAME":"TEME","ECCENTRICITY":"0.00016140","COUNTRY_CODE":"US","NORAD_CAT_ID":"46162","APOAPSIS":"548.338","TLE_LINE2":"2 46162  53.0569 353.7640 0001614  58.8790 301.2357 15.06397965 87531","OBJECT_TYPE":"PAYLOAD","OBJECT_NAME":"STARLINK-1603","GP_ID":"198702028","PERIAPSIS":"546.102","MEAN_ELEMENT_THEORY":"SGP4","ELEMENT_SET_NO":"999"},{"MEAN_MOTION":"15.06392652","RCS_SIZE":"LARGE","MEAN_MOTION_DOT":"-0.00002735","CLASSIFICATION_TYPE":"U","LAUNCH_DATE":"2020-08-18","INCLINATION":"53.0550","SEMIMAJOR_AXIS":"6925.371","DECAY_DATE":null,"TLE_LINE1":"1 46163U 20057AY  22073.41889636 -.00002735  00000-0 -16479-3 0  9992","ARG_OF_PERICENTER":"60.7342","REV_AT_EPOCH":"8713","EPOCH":"2022-03-14T10:03:12.645504","SITE":"AFETR","MEAN_MOTION_DDOT":"0.0000000000000","OBJECT_ID":"2020-057AY","RA_OF_ASC_NODE":"334.0716","TIME_SYSTEM":"UTC","PERIOD":"95.593","APOAPSIS":"548.378","NORAD_CAT_ID":"46163","COUNTRY_CODE":"US","ECCENTRICITY":"0.00016490","REF_FRAME":"TEME","EPHEMERIS_TYPE":"0","BSTAR":"-0.00016479000000","FILE":"3359259","CENTER_NAME":"EARTH","MEAN_ANOMALY":"299.3812","ELEMENT_SET_NO":"999","MEAN_ELEMENT_THEORY":"SGP4","PERIAPSIS":"546.094","GP_ID":"198732169","OBJECT_NAME":"STARLINK-1610","OBJECT_TYPE":"PAYLOAD","TLE_LINE2":"2 46163  53.0550 334.0716 0001649  60.7342 299.3812 15.06392652 87138"},{"MEAN_MOTION":"15.06401650","MEAN_MOTION_DOT":"-0.00001493","RCS_SIZE":"LARGE","INCLINATION":"53.0554","LAUNCH_DATE":"2020-08-18","CLASSIFICATION_TYPE":"U","SEMIMAJOR_AXIS":"6925.344","ARG_OF_PERICENTER":"67.9142","DECAY_DATE":null,"TLE_LINE1":"1 46164U 20057AZ  22073.41520034 -.00001493  00000-0 -81330-4 0  9996","EPOCH":"2022-03-14T09:57:53.309376","REV_AT_EPOCH":"8839","MEAN_MOTION_DDOT":"0.0000000000000","SITE":"AFETR","OBJECT_ID":"2020-057AZ","TIME_SYSTEM":"UTC","RA_OF_ASC_NODE":"334.0859","PERIOD":"95.592","NORAD_CAT_ID":"46164","APOAPSIS":"548.237","COUNTRY_CODE":"US","ECCENTRICITY":"0.00014850","REF_FRAME":"TEME","EPHEMERIS_TYPE":"0","FILE":"3359259","BSTAR":"-0.00008133000000","MEAN_ANOMALY":"292.2004","CENTER_NAME":"EARTH","ELEMENT_SET_NO":"999","MEAN_ELEMENT_THEORY":"SGP4","PERIAPSIS":"546.180","GP_ID":"198732918","OBJECT_NAME":"STARLINK-1612","OBJECT_TYPE":"PAYLOAD","TLE_LINE2":"2 46164  53.0554 334.0859 0001485  67.9142 292.2004 15.06401650 88399"}];
